RAVAN                   
1 41849U 16067B   23181.96792911  .00005984  00000+0  41343-3 0  9998
2 41849  98.0380 336.9852 0017014 139.4699 220.7797 15.06035616362846
CELTEE 1                
1 41850U 16067C   23181.67506577  .00003462  00000+0  27079-3 0  9998
2 41850  98.0672 330.3267 0002078 136.0847 224.0541 15.01773519362448
OPTICUBE 04             
1 41851U 16067D   23181.67709789  .00002416  00000+0  19993-3 0  9993
2 41851  98.0441 328.4463 0013419 150.0689 210.1304 14.99838611362354
AEROCUBE 8D             
1 41852U 16067E   23181.64219827  .00004124  00000+0  31847-3 0  9990
2 41852  98.0650 329.4049 0005329 202.7328 157.3660 15.02132080362386
AEROCUBE 8C             
1 41853U 16067F   23181.96886581  .00004653  00000+0  35945-3 0  9993
2 41853  98.0453 329.2468 0009103 141.0939 219.0941 15.02029547362424
PROMETHEUS 2-1          
1 41854U 16067G   23181.98535342  .00007125  00000+0  49369-3 0  9994
2 41854  98.0680 332.3838 0017281 167.2462 192.9204 15.05851352362566
PROMETHEUS 2-3          
1 41855U 16067H   23181.64642236  .00007916  00000+0  54876-3 0  9996
2 41855  98.0598 331.8749 0014628 177.4286 182.7017 15.05830551362511
INS-1B                  
1 41954U 17008G   23181.63299579  .00066625  00000+0  83274-3 0  9995
2 41954  97.1983 242.4308 0002323 273.8171  86.2820 15.59618446354977
DIDO-2                  
1 42000U 17008BE  23182.07508280  .00014697  00000+0  36503-3 0  9994
2 42000  97.2003 237.9336 0004870   0.8323 359.2931 15.40414968354070
PEASSS                  
1 42015U 17008BV  23182.07251777  .00043271  00000+0  67717-3 0  9997
2 42015  97.2060 245.6039 0001671 316.9652  43.1471 15.53632933355018
AL-FARABI 1             
1 42016U 17008BW  23181.65496125  .00316203  00000+0  12227-2 0  9992
2 42016  97.2065 253.4506 0006061 234.6655 125.4050 15.86437032355552
NAYIF-1 (EO-88)         
1 42017U 17008BX  23182.15436402  .00387584  58663-4  12250-2 0  9990
2 42017  97.2028 254.2701 0007492 240.0133 120.0398 15.91221710355689
UCLSAT                  
1 42765U 17036A   23182.05595905  .00045019  00000+0  71593-3 0  9991
2 42765  97.1405 220.9198 0005136  62.5137 297.6639 15.53165734335443
AALTO-1                 
1 42775U 17036L   23181.62308897  .00016495  00000+0  47077-3 0  9992
2 42775  97.1509 211.2813 0011123  65.5030 294.7373 15.36044156334586
URSA MAIOR              
1 42776U 17036M   23182.05914065  .00018050  00000+0  48230-3 0  9992
2 42776  97.1517 213.0848 0010492  61.7751 298.4553 15.38081327334720
DIAMOND RED             
1 42783U 17036U   23182.07468792  .00022422  00000+0  53853-3 0  9998
2 42783  97.1495 216.4708 0008811  66.2893 293.9278 15.41315040334937
PEGASUS                 
1 42784U 17036V   23182.04811835  .00035814  00000+0  67214-3 0  9991
2 42784  97.1453 219.3028 0007077  62.6595 297.5376 15.48516146335129
DIAMOND GREEN           
1 42785U 17036W   23182.32561605  .00023264  00000+0  53833-3 0  9998
2 42785  97.1484 216.9413 0008426  67.6222 292.5918 15.42434107334975
DIAMOND BLUE            
1 42786U 17036X   23181.57587189  .00024173  00000+0  56844-3 0  9995
2 42786  97.1492 216.1389 0008714  68.6282 291.5895 15.41940435334851
SUCHAI                  
1 42788U 17036Z   23182.09968810  .00067764  00000+0  83594-3 0  9994
2 42788  97.1425 223.3448 0004392  67.4564 292.7158 15.59952817335462
SKCUBE                  
1 42789U 17036AA  23172.81992585  .00056631  00000+0  91963-3 0  9990
2 42789  97.1418 212.3911 0007496  86.3828 273.8283 15.52514419333832
ROBUSTA 1B              
1 42792U 17036AD  23182.09133590  .00063186  00000+0  85096-3 0  9991
2 42792  97.1406 222.9466 0004102  64.8735 295.2947 15.57635681335370
CICERO 6                
1 42793U 17036AE  23182.06005071  .00018897  00000+0  48182-3 0  9995
2 42793  97.1482 216.5540 0008129  67.3917 292.8188 15.39536184335031
CORVUS BC2              
1 42846U 17042X   23181.51650386  .00002413  00000+0  22652-3 0  9996
2 42846  97.3862  21.9194 0009520 157.5997 202.5642 14.94795782324710
CORVUS BC1              
1 42847U 17042Y   23182.37711030  .00002704  00000+0  25269-3 0  9996
2 42847  97.3854  23.0867 0009389 153.7626 206.4073 14.94891416324859
MIRATA                  
1 43015U 17073C   23180.14824653  .00014091  00000+0  87561-3 0  9992
2 43015  97.6333  67.5630 0210587  15.4222 345.3285 14.93127007303271
MAKERSAT 0              
1 43016U 17073D   23182.23247838  .00009916  00000+0  66155-3 0  9995
2 43016  97.6316  67.6082 0225578  18.1924 342.7199 14.88711981303392
CORVUS BC3              
1 43118U 18004H   23182.19223910  .00015633  00000+0  40495-3 0  9995
2 43118  97.3249 256.5155 0008369  98.5841 261.6354 15.39094574304194
CICERO 7                
1 43143U 18004AJ  23181.99151252  .00048026  00000+0  66918-3 0  9999
2 43143  97.3388 269.0117 0003493  92.2390 267.9265 15.56785167304909
GOMX-4B                 
1 43196U 18015E   23182.40500971  .00012136  00000+0  33763-3 0  9997
2 43196  97.5793 333.7179 0015037 152.3080 207.8968 15.36877194301132
GOMX-4A                 
1 43197U 18015F   23182.37932457  .00015575  00000+0  38771-3 0  9996
2 43197  97.5790 335.8625 0014333 147.5415 212.6715 15.40249259301285
AEROCUBE 12B            
1 43557U 18046D   23182.08418759  .00169425  00000+0  93386-3 0  9999
2 43557  51.6222 114.2590 0003103  39.6101 320.5126 15.78636531277902
CUBEBEL-1 (BSUSAT-1)    
1 43666U 18083E   23182.38204257  .00025553  00000+0  66063-3 0  9995
2 43666  97.3788 214.0721 0010623  80.1002 280.1442 15.39031488259389
CICERO 10               
1 43690U 18088A   23181.64670626  .00015289  00000+0  42102-3 0  9995
2 43690  85.0314  63.4522 0010985 167.9688 192.1827 15.36958278257542
PROXIMA I               
1 43694U 18088E   23181.64741834  .00018022  00000+0  45147-3 0  9999
2 43694  85.0243  59.0515 0014363 137.1085 223.1289 15.39827164257846
PROXIMA II              
1 43696U 18088G   23181.66233262  .00018680  00000+0  47001-3 0  9995
2 43696  85.0247  59.0924 0014532 137.4199 222.8182 15.39691004257843
SIRION PATHFINDER-2     
1 43759U 18099B   23182.14232424  .00001994  00000+0  16960-3 0  9990
2 43759  97.5733 243.4317 0014842  69.8199 290.4619 14.98863116249710
CORVUS BC4              
1 43767U 18099K   23182.04500582  .00003609  00000+0  30753-3 0  9992
2 43767  97.5661 241.2668 0012772  80.7959 279.4708 14.98304875249606
MOVE-II                 
1 43780U 18099Y   23181.41116059  .00008432  00000+0  61338-3 0  9991
2 43780  97.5692 245.1581 0010257 108.9235 251.3103 15.04016413249725
SPACEBEE-7              
1 43816U 18099BL  23181.66825580  .00007029  00000+0  52927-3 0  9999
2 43816  97.5960 246.2438 0012164  55.1183 305.1184 15.02753128249333
SPACEBEE-5              
1 43817U 18099BM  23181.67636744  .00028968  00000+0  14085-2 0  9990
2 43817  97.5916 253.7762 0003459  66.8418 293.3180 15.18367313249748
SPACEBEE-6              
1 43818U 18099BN  23182.18735553  .00009108  00000+0  62053-3 0  9990
2 43818  97.5901 248.8550 0013033  71.6545 288.6098 15.06421210249678
SHIELDS 1               
1 43850U 18104B   23182.35491401  .00006330  00000+0  22473-3 0  9999
2 43850  85.0263 160.0039 0010602 312.6691  47.3660 15.28771328252270
STF-1                   
1 43852U 18104D   23181.43990594  .00029588  00000+0  64900-3 0  9997
2 43852  85.0231 158.1666 0006162 320.5519  39.5285 15.43902959252442
ZACUBE-2                
1 43907U 18111AH  23182.35885107  .00019794  00000+0  47447-3 0  9996
2 43907  97.1371  61.6368 0015818 154.6210 205.5817 15.41308370251339
LUME 1                  
1 43908U 18111AJ  23181.66436537  .00029884  00000+0  58075-3 0  9999
2 43908  97.1386  64.7343 0014121 142.3488 217.8754 15.47461553251470
MOVE-IIB                
1 44398U 19038N   23181.92597098  .00043246  00000+0  10069-2 0  9999
2 44398  97.6579 165.4068 0011479 224.2440 135.7889 15.42094665220785
SONATE                  
1 44400U 19038Q   23182.17424663  .00007266  00000+0  32374-3 0  9994
2 44400  97.6834 160.1105 0018426 261.8385  98.0760 15.21600060220363
LUCKY-7                 
1 44406U 19038W   23182.16496158  .00010218  00000+0  41680-3 0  9998
2 44406  97.6794 161.4340 0016699 255.0616 104.8772 15.24511696220459
BEESAT 9                
1 44412U 19038AC  23181.87699543  .00018484  00000+0  62417-3 0  9999
2 44412  97.6732 162.9714 0012792 251.3409 108.6443 15.30654433220257
JAISAT-1                
1 44419U 19038F   23181.95473213  .00018185  00000+0  60847-3 0  9992
2 44419  97.6728 164.1404 0012131 246.5268 113.4698 15.30961423220644
DUCHIFAT-3              
1 44854U 19089C   23181.86155308  .00006792  00000+0  45582-3 0  9993
2 44854  36.9631   9.5513 0007886  60.6277 299.5253 15.06480120194898
EYESAT-NANO             
1 44877U 19092E   23181.49136332  .00043755  00000+0  96409-3 0  9991
2 44877  97.4568  12.2342 0007089  98.3308 261.8743 15.43782470196154
M2 PATHFINDER           
1 45727U 20037E   23182.39423725  .00001683  00000+0  16257-3 0  9999
2 45727  97.7576 356.9414 0011347 211.7918 148.2618 14.94132115163365
NETSAT-4                
1 46504U 20068U   23172.82401605  .00005378  00000+0  35642-3 0  9991
2 46504  97.7631 118.6792 0012174 145.7373 214.4642 15.07663542149605
NETSAT-3                
1 46505U 20068V   23172.85779764  .00006087  00000+0  40476-3 0  9998
2 46505  97.7618 118.5340 0010915 153.2632 206.9160 15.07495447149611
NETSAT-1                
1 46506U 20068W   23172.83541765  .00004621  00000+0  31108-3 0  9999
2 46506  97.7629 118.3892 0009153 159.3423 200.8176 15.07188226149604
NETSAT-2                
1 46507U 20068X   23172.82218988  .00005424  00000+0  36039-3 0  9997
2 46507  97.7618 118.4207 0008245 165.4184 194.7283 15.07597617149559
SAI-1 NANOCONNECT-2     
1 47701U 21015C   23181.95156197  .00045059  00000+0  79609-3 0  9992
2 47701  97.3853 265.5773 0008212 176.4738 183.6573 15.50186244130283
